{
  "norad_id": 53980,
  "name": "STARLINK-5133",
  "history": [
    {
      "epoch": "2026-03-28T19:34:37.462368Z",
      "apogee_km": 540.6220282912391,
      "perigee_km": 538.8564479177494,
      "latitude_deg": 5.991718476536748e-05,
      "longitude_deg": 13.096513645195698,
      "height_km": 540.5290641070477,
      "semi_major_axis_km": 6917.8762381044935,
      "eccentricity": 0.00012761,
      "inclination_deg": 53.2155,
      "raan_deg": 132.9833,
      "arg_perigee_deg": 83.1167,
      "mean_anomaly_deg": 276.9971,
      "mean_motion_rev_day": 15.08841358
    }
  ]
}